$$SOE
2460728.500000000, A.D. 2025-Feb-22 00:00:00.0000, 4.351848288552122E+07, 2.879482943117207E+08, -8.347744815597585E+07,
2460735.500000000, A.D. 2025-Mar-01 00:00:00.0000, 3.148745441695279E+07, 2.885703093218524E+08, -8.607995213627928E+07,
2460742.500000000, A.D. 2025-Mar-08 00:00:00.0000, 1.940139688314573E+07, 2.886878075833156E+08, -8.853189249460000E+07,
2460749.500000000, A.D. 2025-Mar-15 00:00:00.0000, 7.281385799526650E+06, 2.882995989967654E+08, -9.082867913098171E+07,
2460756.500000000, A.D. 2025-Mar-22 00:00:00.0000, -4.851366043648324E+06, 2.874052433565959E+08, -9.296593375167915E+07,
2460763.500000000, A.D. 2025-Mar-29 00:00:00.0000, -1.697552888360260E+07, 2.860050562203099E+08, -9.493949626900630E+07,
2460770.500000000, A.D. 2025-Apr-05 00:00:00.0000, -2.906967519456426E+07, 2.841001158681616E+08, -9.674543146714702E+07,
2460777.500000000, A.D. 2025-Apr-12 00:00:00.0000, -4.111229980965518E+07, 2.816922714218033E+08, -9.838003575628737E+07,
2460784.500000000, A.D. 2025-Apr-19 00:00:00.0000, -5.308184122825788E+07, 2.787841511949974E+08, -9.983984407154483E+07,
2460791.500000000, A.D. 2025-Apr-26 00:00:00.0000, -6.495670392428058E+07, 2.753791710234672E+08, -1.011216369593901E+08,
2460798.500000000, A.D. 2025-May-03 00:00:00.0000, -7.671528162743020E+07, 2.714815425361965E+08, -1.022224478597881E+08,
2460805.500000000, A.D. 2025-May-10 00:00:00.0000, -8.833598163331321E+07, 2.670962813115852E+08, -1.031395705824591E+08,
2460812.500000000, A.D. 2025-May-17 00:00:00.0000, -9.979725018837422E+07, 2.622292148032777E+08, -1.038705669771431E+08,
2460819.500000000, A.D. 2025-May-24 00:00:00.0000, -1.110775988563636E+08, 2.568869898977009E+08, -1.044132748077292E+08,
2460826.500000000, A.D. 2025-May-31 00:00:00.0000, -1.221556315270797E+08, 2.510770803211485E+08, -1.047658158288370E+08,
2460833.500000000, A.D. 2025-Jun-07 00:00:00.0000, -1.330100725454114E+08, 2.448077949999910E+08, -1.049266039134667E+08,
2460840.500000000, A.D. 2025-Jun-14 00:00:00.0000, -1.436197983952415E+08, 2.380882866007425E+08, -1.048943530527773E+08,
2460847.500000000, A.D. 2025-Jun-21 00:00:00.0000, -1.539638717760102E+08, 2.309285568563377E+08, -1.046680855773008E+08,
2460854.500000000, A.D. 2025-Jun-28 00:00:00.0000, -1.640215750023096E+08, 2.233394603010111E+08, -1.042471407021184E+08,
2460861.500000000, A.D. 2025-Jul-05 00:00:00.0000, -1.737724443027867E+08, 2.153327084305850E+08, -1.036311830508593E+08,
2460868.500000000, A.D. 2025-Jul-12 00:00:00.0000, -1.831963062480874E+08, 2.069208733370346E+08, -1.028202110795076E+08,
2460875.500000000, A.D. 2025-Jul-19 00:00:00.0000, -1.922733161448146E+08, 1.981173900799845E+08, -1.018145654166093E+08,
2460882.500000000, A.D. 2025-Jul-26 00:00:00.0000, -2.009839982031782E+08, 1.889365575655276E+08, -1.006149370906746E+08,
2460889.500000000, A.D. 2025-Aug-02 00:00:00.0000, -2.093092874178089E+08, 1.793935377727824E+08, -9.922237559145208E+07,
2460896.500000000, A.D. 2025-Aug-09 00:00:00.0000, -2.172305731278839E+08, 1.695043531243499E+08, -9.763829670542870E+07,
2460903.500000000, A.D. 2025-Aug-16 00:00:00.0000, -2.247297441520766E+08, 1.592858817407146E+08, -9.586449006887254E+07,
2460910.500000000, A.D. 2025-Aug-23 00:00:00.0000, -2.317892351591882E+08, 1.487558503914718E+08, -9.390312638877790E+07,
2460917.500000000, A.D. 2025-Aug-30 00:00:00.0000, -2.383920738784635E+08, 1.379328256474346E+08, -9.175676422211517E+07,
2460924.500000000, A.D. 2025-Sep-06 00:00:00.0000, -2.445219304809683E+08, 1.268362040187721E+08, -8.942835601585948E+07,
2460931.500000000, A.D. 2025-Sep-13 00:00:00.0000, -2.501631706968238E+08, 1.154861983829589E+08, -8.692125337140270E+07,
2460938.500000000, A.D. 2025-Sep-20 00:00:00.0000, -2.553009092569121E+08, 1.039038188509416E+08, -8.423921187400588E+07,
2460945.500000000, A.D. 2025-Sep-27 00:00:00.0000, -2.599210624269909E+08, 9.211085096789928E+07, -8.138639522094369E+07,
2460952.500000000, A.D. 2025-Oct-04 00:00:00.0000, -2.640104014625632E+08, 8.012983157050595E+07, -7.836737831446350E+07,
2460959.500000000, A.D. 2025-Oct-11 00:00:00.0000, -2.675566071475911E+08, 6.798402116094626E+07, -7.518714926404428E+07,
2460966.500000000, A.D. 2025-Oct-18 00:00:00.0000, -2.705483248862537E+08, 5.569737234478827E+07, -7.185111024092504E+07,
2460973.500000000, A.D. 2025-Oct-25 00:00:00.0000, -2.729752199252858E+08, 4.329449418049288E+07, -6.836507708336243E+07,
2460980.500000000, A.D. 2025-Nov-01 00:00:00.0000, -2.748280323476231E+08, 3.080061231074402E+07, -6.473527753462641E+07,
2460987.500000000, A.D. 2025-Nov-08 00:00:00.0000, -2.760986314450306E+08, 1.824152471410076E+07, -6.096834799443866E+07,
2460994.500000000, A.D. 2025-Nov-15 00:00:00.0000, -2.767800689339991E+08, 5.643552901562504E+06, -5.707132868271767E+07,
2461001.500000000, A.D. 2025-Nov-22 00:00:00.0000, -2.768666302071279E+08, -6.966511314590000E+06, -5.305165713272499E+07,
2461008.500000000, A.D. 2025-Nov-29 00:00:00.0000, -2.763538833547126E+08, -1.956146239393337E+07, -4.891715982293711E+07,
2461015.500000000, A.D. 2025-Dec-06 00:00:00.0000, -2.752387277964085E+08, -3.211374111596634E+07, -4.467604167467148E+07,
2461022.500000000, A.D. 2025-Dec-13 00:00:00.0000, -2.735194416325939E+08, -4.459550142071547E+07, -4.033687365964039E+07,
2461029.500000000, A.D. 2025-Dec-20 00:00:00.0000, -2.711957237449248E+08, -5.697868291456819E+07, -3.590857868681132E+07,
2461036.500000000, A.D. 2025-Dec-27 00:00:00.0000, -2.682687312142617E+08, -6.923508629515752E+07, -3.140041539565653E+07,
2461043.500000000, A.D. 2026-Jan-03 00:00:00.0000, -2.647411129941793E+08, -8.133645211446249E+07, -2.682195972546977E+07,
2461050.500000000, A.D. 2026-Jan-10 00:00:00.0000, -2.606170392216484E+08, -9.325454331615536E+07, -2.218308430596168E+07,
2461057.500000000, A.D. 2026-Jan-17 00:00:00.0000, -2.559022254422439E+08, -1.049612313329451E+08, -1.749393570059384E+07,
2461064.500000000, A.D. 2026-Jan-24 00:00:00.0000, -2.506039511939855E+08, -1.164285853513521E+08, -1.276490952945854E+07,
2461071.500000000, A.D. 2026-Jan-31 00:00:00.0000, -2.447310724668262E+08, -1.276289643239445E+08, -8.006623517843962E+06,
2461078.500000000, A.D. 2026-Feb-07 00:00:00.0000, -2.382940275472879E+08, -1.385351113039071E+08, -3.229888548995182E+06,
2461085.500000000, A.D. 2026-Feb-14 00:00:00.0000, -2.313048356063999E+08, -1.491202495809307E+08, 1.554322160672501E+06,
2461092.500000000, A.D. 2026-Feb-21 00:00:00.0000, -2.237770873023028E+08, -1.593581794538464E+08, 6.334905656005166E+06,
2461099.500000000, A.D. 2026-Feb-28 00:00:00.0000, -2.157259281949491E+08, -1.692233738521567E+08, 1.110066365548252E+07,
2461106.500000000, A.D. 2026-Mar-07 00:00:00.0000, -2.071680368057684E+08, -1.786910740845971E+08, 1.584033863922526E+07,
2461113.500000000, A.D. 2026-Mar-14 00:00:00.0000, -1.981215943965051E+08, -1.877373873494476E+08, 2.054265097108585E+07,
2461120.500000000, A.D. 2026-Mar-21 00:00:00.0000, -1.886062446159053E+08, -1.963393823866529E+08, 2.519633691093507E+07,
2461127.500000000, A.D. 2026-Mar-28 00:00:00.0000, -1.786430450339451E+08, -2.044751814997965E+08, 2.979018754902162E+07,
2461134.500000000, A.D. 2026-Apr-04 00:00:00.0000, -1.682544112567696E+08, -2.121240491601467E+08, 3.431308838274962E+07,
2461141.500000000, A.D. 2026-Apr-11 00:00:00.0000, -1.574640535197597E+08, -2.192664768081304E+08, 3.875405920654833E+07,
2461148.500000000, A.D. 2026-Apr-18 00:00:00.0000, -1.462969058620911E+08, -2.258842631421447E+08, 4.310229401296459E+07,
2461155.500000000, A.D. 2026-Apr-25 00:00:00.0000, -1.347790481956488E+08, -2.319605891949092E+08, 4.734720061129170E+07,
2461162.500000000, A.D. 2026-May-02 00:00:00.0000, -1.229376216831396E+08, -2.374800875756957E+08, 5.147843966604304E+07,
2461169.500000000, A.D. 2026-May-09 00:00:00.0000, -1.108007378247435E+08, -2.424289053395493E+08, 5.548596284574167E+07,
2461176.500000000, A.D. 2026-May-16 00:00:00.0000, -9.839738147423580E+07, -2.467947597987866E+08, 5.936004976956721E+07,
2461183.500000000, A.D. 2026-May-23 00:00:00.0000, -8.575730840117724E+07, -2.505669857741733E+08, 6.309134354812631E+07,
2461190.500000000, A.D. 2026-May-30 00:00:00.0000, -7.291094020450792E+07, -2.537365735575623E+08, 6.667088485986315E+07,
2461197.500000000, A.D. 2026-Jun-06 00:00:00.0000, -5.988925766577952E+07, -2.562962005337559E+08, 7.009014405947730E+07,
2461204.500000000, A.D. 2026-Jun-13 00:00:00.0000, -4.672368968030740E+07, -2.582402560341823E+08, 7.334105075230628E+07,
2461211.500000000, A.D. 2026-Jun-20 00:00:00.0000, -3.344599909444995E+07, -2.595648563664599E+08, 7.641602090108685E+07,
2461218.500000000, A.D. 2026-Jun-27 00:00:00.0000, -2.008816798485150E+07, -2.602678503255271E+08, 7.930798140731752E+07,
2461225.500000000, A.D. 2026-Jul-04 00:00:00.0000, -6.682283219269618E+06, -2.603488160211867E+08, 8.201039195531169E+07,
2461232.500000000, A.D. 2026-Jul-11 00:00:00.0000, 6.739577121904255E+06, -2.598090493020573E+08, 8.451726397209705E+07,
2461239.500000000, A.D. 2026-Jul-18 00:00:00.0000, 2.014545574362161E+07, -2.586515439802496E+08, 8.682317661549196E+07,
2461246.500000000, A.D. 2026-Jul-25 00:00:00.0000, 3.350362580111396E+07, -2.568809641641498E+08, 8.892328973903689E+07,
2461253.500000000, A.D. 2026-Aug-01 00:00:00.0000, 4.678269754648972E+07, -2.545036091343044E+08, 9.081335381095260E+07,
2461260.500000000, A.D. 2026-Aug-08 00:00:00.0000, 5.995172148644987E+07, -2.515273712523361E+08, 9.248971678179894E+07,
2461267.500000000, A.D. 2026-Aug-15 00:00:00.0000, 7.298028783663917E+07, -2.479616869619821E+08, 9.394932794135131E+07,
2461274.500000000, A.D. 2026-Aug-22 00:00:00.0000, 8.583862094839448E+07, -2.438174802149725E+08, 9.518973899474102E+07,
2461281.500000000, A.D. 2026-Aug-29 00:00:00.0000, 9.849766593401173E+07, -2.391071002816255E+08, 9.620910253251624E+07,
2461288.500000000, A.D. 2026-Sep-05 00:00:00.0000, 1.109291692297725E+08, -2.338442574289082E+08, 9.700616756564865E+07,
$$EOE